ORBCOMM FM24            
1 25478U 98053D   24129.11703173  .00001591  00000+0  59514-3 0  9994
2 25478  45.0100  26.1056 0001967 358.1725   1.9115 14.35634544339463
ORBCOMM FM25            
1 25479U 98053E   24128.80492958  .00001564  00000+0  58619-3 0  9991
2 25479  45.0091  25.8230 0004420  12.6758 347.4200 14.35611208339430
ORBCOMM FM26            
1 25480U 98053F   24128.81038502  .00001352  00000+0  51885-3 0  9998
2 25480  45.0086  19.9041 0006278  33.6614 326.4631 14.35061708339379
ORBCOMM FM27            
1 25481U 98053G   24129.41932574  .00001788  00000+0  66339-3 0  9991
2 25481  45.0074  23.1863 0000424  13.3936 346.6922 14.35599834339491
ORBCOMM FM28            
1 25482U 98053H   24129.26733369  .00001602  00000+0  59426-3 0  9990
2 25482  45.0068 322.3795 0003889  77.2464 282.8818 14.36037366340277
ORBCOMM FM30            
1 25980U 99065A   24128.56368529  .00001183  00000+0  45882-3 0  9996
2 25980  45.0309 206.5938 0005640 155.9859 204.1253 14.35202664276664
ORBCOMM FM31            
1 25981U 99065B   24129.50376035  .00001178  00000+0  45716-3 0  9993
2 25981  45.0222 195.8523 0003926 198.0394 162.0315 14.35204336276799
ORBCOMM FM32            
1 25982U 99065C   24129.48381057  .00001229  00000+0  48459-3 0  9995
2 25982  45.0153 209.7385 0006346 186.4774 173.5992 14.34179725276583
